FENGYUN 1C DEB          
1 37440U 99025EHJ 17337.48437221  .00001668  00000-0  68253-3 0  9993
2 37440  98.9805  72.2911 0065763 308.6209  50.9095 14.27490512540503
